{
  "type": "FeatureCollection",
  "features": [
    {
      "type": "Feature",
      "properties": {
        "norad_id": 33886,
        "name": "IRIDIUM 33 DEB",
        "group": "iridium-33-debris",
        "lat": -66.82190691065435,
        "lon": 57.80553734063704,
        "alt_km": 774.3033933581546,
        "timestamp": "2025-12-14T22:38:41.142184+00:00",
        "meta_object_name": "IRIDIUM 33 DEB",
        "meta_object_id": "1997-051BF",
        "meta_epoch": "2025-12-14T06:30:27.952704",
        "meta_mean_motion": 14.36054173,
        "meta_eccentricity": 0.00124063,
        "meta_inclination": 86.383,
        "meta_ra_of_asc_node": 66.5843,
        "meta_arg_of_pericenter": 236.2835,
        "meta_mean_anomaly": 182.7139,
        "meta_ephemeris_type": 0,
        "meta_classification_type": "U",
        "meta_norad_cat_id": 33886,
        "meta_element_set_no": 999,
        "meta_rev_at_epoch": 88074,
        "meta_bstar": 0.00025504427,
        "meta_mean_motion_dot": 7.61e-06,
        "meta_mean_motion_ddot": 0,
        "tle_line1": "1 33886U 97051BF  25348.27115686  .00000761  00000+0  25504-3 0  9990",
        "tle_line2": "2 33886  86.3830  66.5843 0012406 236.2835 182.7139 14.36054173880744"
      },
      "geometry": {
        "type": "Point",
        "coordinates": [
          57.80553734063704,
          -66.82190691065435
        ]
      }
    },
    {
      "type": "Feature",
      "properties": {
        "norad_id": 33887,
        "name": "IRIDIUM 33 DEB",
        "group": "iridium-33-debris",
        "lat": -58.249655735769366,
        "lon": -171.5624505071214,
        "alt_km": 771.816934320339,
        "timestamp": "2025-12-14T22:38:41.142195+00:00",
        "meta_object_name": "IRIDIUM 33 DEB",
        "meta_object_id": "1997-051BG",
        "meta_epoch": "2025-12-14T08:14:24.279648",
        "meta_mean_motion": 14.37222625,
        "meta_eccentricity": 0.00045856,
        "meta_inclination": 86.3045,
        "meta_ra_of_asc_node": 2.7012,
        "meta_arg_of_pericenter": 219.5635,
        "meta_mean_anomaly": 155.3477,
        "meta_ephemeris_type": 0,
        "meta_classification_type": "U",
        "meta_norad_cat_id": 33887,
        "meta_element_set_no": 999,
        "meta_rev_at_epoch": 88188,
        "meta_bstar": 0.00018810675,
        "meta_mean_motion_dot": 5.79e-06,
        "meta_mean_motion_ddot": 0,
        "tle_line1": "1 33887U 97051BG  25348.34333657  .00000579  00000+0  18811-3 0  9999",
        "tle_line2": "2 33887  86.3045   2.7012 0004585 219.5635 155.3477 14.37222625881881"
      },
      "geometry": {
        "type": "Point",
        "coordinates": [
          -171.5624505071214,
          -58.249655735769366
        ]
      }
    },
    {
      "type": "Feature",
      "properties": {
        "norad_id": 33953,
        "name": "IRIDIUM 33 DEB",
        "group": "iridium-33-debris",
        "lat": -57.427484627681096,
        "lon": -121.49765526011282,
        "alt_km": 725.557280352582,
        "timestamp": "2025-12-14T22:38:41.142205+00:00",
        "meta_object_name": "IRIDIUM 33 DEB",
        "meta_object_id": "1997-051BN",
        "meta_epoch": "2025-12-14T05:19:31.719360",
        "meta_mean_motion": 14.55346704,
        "meta_eccentricity": 0.00183062,
        "meta_inclination": 86.3848,
        "meta_ra_of_asc_node": 53.136,
        "meta_arg_of_pericenter": 98.369,
        "meta_mean_anomaly": 320.6286,
        "meta_ephemeris_type": 0,
        "meta_classification_type": "U",
        "meta_norad_cat_id": 33953,
        "meta_element_set_no": 999,
        "meta_rev_at_epoch": 88325,
        "meta_bstar": 0.0012767998,
        "meta_mean_motion_dot": 5.571e-05,
        "meta_mean_motion_ddot": 0,
        "tle_line1": "1 33953U 97051BN  25348.22189490  .00005571  00000+0  12768-2 0  9995",
        "tle_line2": "2 33953  86.3848  53.1360 0018306  98.3690 320.6286 14.55346704883255"
      },
      "geometry": {
        "type": "Point",
        "coordinates": [
          -121.49765526011282,
          -57.427484627681096
        ]
      }
    },
    {
      "type": "Feature",
      "properties": {
        "norad_id": 33960,
        "name": "IRIDIUM 33 DEB",
        "group": "iridium-33-debris",
        "lat": -80.53814317685094,
        "lon": -94.68194733968576,
        "alt_km": 623.9053646316916,
        "timestamp": "2025-12-14T22:38:41.142215+00:00",
        "meta_object_name": "IRIDIUM 33 DEB",
        "meta_object_id": "1997-051BV",
        "meta_epoch": "2025-12-14T07:32:08.378304",
        "meta_mean_motion": 14.85305975,
        "meta_eccentricity": 0.00074993,
        "meta_inclination": 86.2527,
        "meta_ra_of_asc_node": 288.7726,
        "meta_arg_of_pericenter": 59.8215,
        "meta_mean_anomaly": 94.8869,
        "meta_ephemeris_type": 0,
        "meta_classification_type": "U",
        "meta_norad_cat_id": 33960,
        "meta_element_set_no": 999,
        "meta_rev_at_epoch": 88890,
        "meta_bstar": 0.0034026068,
        "meta_mean_motion_dot": 0.00029358,
        "meta_mean_motion_ddot": 0,
        "tle_line1": "1 33960U 97051BV  25348.31398586  .00029358  00000+0  34026-2 0  9991",
        "tle_line2": "2 33960  86.2527 288.7726 0007499  59.8215  94.8869 14.85305975888906"
      },
      "geometry": {
        "type": "Point",
        "coordinates": [
          -94.68194733968576,
          -80.53814317685094
        ]
      }
    },
    {
      "type": "Feature",
      "properties": {
        "norad_id": 33966,
        "name": "IRIDIUM 33 DEB",
        "group": "iridium-33-debris",
        "lat": -41.978959617502106,
        "lon": 41.82799792013237,
        "alt_km": 737.5825667901254,
        "timestamp": "2025-12-14T22:38:41.142226+00:00",
        "meta_object_name": "IRIDIUM 33 DEB",
        "meta_object_id": "1997-051CB",
        "meta_epoch": "2025-12-14T04:52:52.286016",
        "meta_mean_motion": 14.49602222,
        "meta_eccentricity": 0.00075876,
        "meta_inclination": 86.3927,
        "meta_ra_of_asc_node": 45.3993,
        "meta_arg_of_pericenter": 183.3114,
        "meta_mean_anomaly": 234.5978,
        "meta_ephemeris_type": 0,
        "meta_classification_type": "U",
        "meta_norad_cat_id": 33966,
        "meta_element_set_no": 999,
        "meta_rev_at_epoch": 88463,
        "meta_bstar": 0.0006523539,
        "meta_mean_motion_dot": 2.524e-05,
        "meta_mean_motion_ddot": 0,
        "tle_line1": "1 33966U 97051CB  25348.20338294  .00002524  00000+0  65235-3 0  9998",
        "tle_line2": "2 33966  86.3927  45.3993 0007587 183.3114 234.5978 14.49602222884634"
      },
      "geometry": {
        "type": "Point",
        "coordinates": [
          41.82799792013237,
          -41.978959617502106
        ]
      }
    },
    {
      "type": "Feature",
      "properties": {
        "norad_id": 34071,
        "name": "IRIDIUM 33 DEB",
        "group": "iridium-33-debris",
        "lat": 23.053418870657435,
        "lon": 18.429203338506156,
        "alt_km": 725.555226314329,
        "timestamp": "2025-12-14T22:38:41.142236+00:00",
        "meta_object_name": "IRIDIUM 33 DEB",
        "meta_object_id": "1997-051CE",
        "meta_epoch": "2025-12-14T07:37:37.227072",
        "meta_mean_motion": 14.49474417,
        "meta_eccentricity": 0.00099575,
        "meta_inclination": 86.3461,
        "meta_ra_of_asc_node": 17.1427,
        "meta_arg_of_pericenter": 103.385,
        "meta_mean_anomaly": 256.8465,
        "meta_ephemeris_type": 0,
        "meta_classification_type": "U",
        "meta_norad_cat_id": 34071,
        "meta_element_set_no": 999,
        "meta_rev_at_epoch": 88357,
        "meta_bstar": 0.00068544291,
        "meta_mean_motion_dot": 2.645e-05,
        "meta_mean_motion_ddot": 0,
        "tle_line1": "1 34071U 97051CE  25348.31779198  .00002645  00000+0  68544-3 0  9990",
        "tle_line2": "2 34071  86.3461  17.1427 0009957 103.3850 256.8465 14.49474417883579"
      },
      "geometry": {
        "type": "Point",
        "coordinates": [
          18.429203338506156,
          23.053418870657435
        ]
      }
    },
    {
      "type": "Feature",
      "properties": {
        "norad_id": 34077,
        "name": "IRIDIUM 33 DEB",
        "group": "iridium-33-debris",
        "lat": -12.595224609019112,
        "lon": 49.727358425407154,
        "alt_km": 677.0302625647,
        "timestamp": "2025-12-14T22:38:41.142246+00:00",
        "meta_object_name": "IRIDIUM 33 DEB",
        "meta_object_id": "1997-051CL",
        "meta_epoch": "2025-12-14T04:54:48.563136",
        "meta_mean_motion": 14.64862687,
        "meta_eccentricity": 0.00100512,
        "meta_inclination": 86.3862,
        "meta_ra_of_asc_node": 50.8618,
        "meta_arg_of_pericenter": 34.9001,
        "meta_mean_anomaly": 19.1188,
        "meta_ephemeris_type": 0,
        "meta_classification_type": "U",
        "meta_norad_cat_id": 34077,
        "meta_element_set_no": 999,
        "meta_rev_at_epoch": 88354,
        "meta_bstar": 0.001264676,
        "meta_mean_motion_dot": 6.781e-05,
        "meta_mean_motion_ddot": 0,
        "tle_line1": "1 34077U 97051CL  25348.20472874  .00006781  00000+0  12647-2 0  9992",
        "tle_line2": "2 34077  86.3862  50.8618 0010051  34.9001  19.1188 14.64862687883546"
      },
      "geometry": {
        "type": "Point",
        "coordinates": [
          49.727358425407154,
          -12.595224609019112
        ]
      }
    }
  ]
}